S-NET B                 
1 43187U 18014H   22323.18017768  .00001565  00000+0  13538-3 0  9996
2 43187  97.6460 225.8418 0011038 131.1552 229.0625 14.98560404262083
S-NET A                 
1 43188U 18014J   22323.44757223  .00001612  00000+0  13931-3 0  9993
2 43188  97.6464 226.1766 0011013 130.5829 229.6354 14.98561313262121
S-NET C                 
1 43189U 18014K   22323.18151019  .00001607  00000+0  13893-3 0  9997
2 43189  97.6457 225.8296 0010974 131.5724 228.6441 14.98555208260634
FENGMANIU-1 (FMN-1)     
1 43192U 18015A   22323.68216664  .00055080  00000+0  96393-3 0  9995
2 43192  97.5507 114.2507 0009652 200.6942 171.5797 15.50395702267389
SHAONIAN XING           
1 43199U 18015H   22323.67490840  .00024954  00000+0  61214-3 0  9991
2 43199  97.5319 107.5480 0011554 205.1288 278.5982 15.40631771267280
LUOJIA-1 01             
1 43485U 18048B   22323.42575651  .00001372  00000+0  19821-3 0  9998
2 43485  97.9245  42.1470 0012328  62.9016 297.3429 14.77738046240751
SURFSAT                 
1 43614U 18070B   22323.87197141  .00095390  00000+0  67677-3 0  9995
2 43614  93.0032 165.2082 0008967 101.7902 258.4377 15.73596142235325
CP7 (DAVE)              
1 43615U 18070C   22323.00744337  .00079654  00000+0  67477-3 0  9999
2 43615  93.0031 164.4587 0009683 110.0512 250.1802 15.69392995235127
CZ-4B R/B               
1 43656U 18081B   22323.85212120  .00000086  00000+0  43260-4 0  9997
2 43656  99.4200 110.4356 0208837  58.0945 304.0365 14.30658127212574
CUBEBEL-1 (BSUSAT-1)    
1 43666U 18083E   22323.94343248  .00011692  00000+0  45068-3 0  9998
2 43666  97.4084 351.0520 0013420 138.9179 273.9732 15.26400588225172
CHANGSHAGAOXIN (TY 4-01)
1 43669U 18083H   22323.96328556  .00009812  00000+0  40001-3 0  9991
2 43669  97.4034 346.5661 0010120 135.1943 290.5048 15.24606895224976
TEN-KOH                 
1 43677U 18084G   22323.80921145  .00001316  00000+0  13669-3 0  9998
2 43677  97.9858  95.5178 0016739 117.6014 242.6906 14.91589644220831
DIWATA-2B               
1 43678U 18084H   22323.40633328  .00001274  00000+0  12985-3 0  9991
2 43678  97.9922  98.7261 0010800 129.5606 230.6587 14.92492944220967
STARS-AO                
1 43679U 18084J   22323.85262245  .00002337  00000+0  22262-3 0  9997
2 43679  97.9953 101.5352 0009621 132.6747 227.5285 14.94375392221146
AUTCUBE 2               
1 43681U 18084K   22323.60638009  .00002685  00000+0  25995-3 0  9990
2 43681  97.9921  99.6895 0010250 127.6738 232.5412 14.93588805221004
IRVINE01                
1 43693U 18088D   22323.40448180  .00102850  00000+0  14401-2 0  9998
2 43693  85.0250 204.7288 0001951 196.2504 163.8694 15.56436660224132
ES'HAIL 2               
1 43700U 18090A   22323.83831002  .00000165  00000+0  00000+0 0  9999
2 43700   0.0201 288.0368 0001157 326.8006 131.6257  1.00269805 14587
FACSAT-1                
1 43721U 18096C   22323.94707741  .00030704  00000+0  67505-3 0  9991
2 43721  97.3387  44.1856 0011791 207.1423 270.2519 15.43874285221897
CENTAURI-2              
1 43722U 18096D   22323.47076823  .00049803  00000+0  85757-3 0  9999
2 43722  97.3441  46.8541 0010386 207.1104 152.9607 15.50869137221997
3CAT-1                  
1 43728U 18096K   22323.22569369  .00053649  00000+0  93961-3 0  9999
2 43728  97.3461  47.3613 0010007 209.9512 150.1169 15.50375480221990
INNOSAT-2               
1 43738U 18096V   22323.93076448  .00478250  87726-4  16648-2 0  9999
2 43738  97.3484  58.5447 0008693 235.1131 235.3542 15.89293218222757
REAKTOR HELLO WORLD     
1 43743U 18096AA  22323.20334537  .00018290  00000+0  47962-3 0  9994
2 43743  97.3422  42.7380 0012862 219.0182 141.0137 15.38635015221713
ELYSIUM STAR 2 & LFF    
1 43760U 18099C   22323.82733391  .00004572  00000+0  36747-3 0  9992
2 43760  97.6147  29.0606 0010318 102.9765 257.2611 15.00462005216402
2018-099D               
1 43761U 18099D   22323.84210610  .00001021  00000+0  95145-4 0  9993
2 43761  97.6040  26.3062 0015320 107.2353 253.0536 14.96309576216250
AISTECHSAT 2            
1 43768U 18099L   22323.60905807  .00001790  00000+0  16259-3 0  9994
2 43768  97.6005  24.5071 0012644 106.0450 254.2165 14.96430234215884
FOX-1CLIFF (AO-95)      
1 43770U 18099N   22323.61832489  .00002143  00000+0  18933-3 0  9997
2 43770  97.6047  25.8640 0015158 112.5180 247.7649 14.97300585216223
RANGE-A                 
1 43772U 18099Q   22323.60405805  .00004656  00000+0  39627-3 0  9990
2 43772  97.6169  27.9216 0015352 100.8049 259.4902 14.98195739216251
RANGE-B                 
1 43773U 18099R   22323.45869530  .00002954  00000+0  26340-3 0  9990
2 43773  97.5962  24.3204 0014900 102.5601 257.7289 14.96659149216179
2018-099T               
1 43775U 18099T   22323.12346288  .00002037  00000+0  18371-3 0  9993
2 43775  97.6036  25.3692 0015773 107.7278 252.5667 14.96539804216136
MOVE-II                 
1 43780U 18099Y   22323.62038626  .00003986  00000+0  33146-3 0  9999
2 43780  97.6102  27.4289 0013566 104.8273 255.4454 14.99196337216298
SNUSAT-2                
1 43782U 18099AA  22323.45028425  .00002829  00000+0  24781-3 0  9998
2 43782  97.6037  26.2002 0013609 101.4787 258.7964 14.97396591216225
SNUGLITE                
1 43784U 18099AC  22323.46236552  .00003717  00000+0  32131-3 0  9998
2 43784  97.6006  25.8356 0016267 107.2052 253.0953 14.97702151216254
ITASAT 1                
1 43786U 18099AE  22323.80198268  .00002783  00000+0  24412-3 0  9994
2 43786  97.6075  27.0370 0016450 105.7542 254.5495 14.97330484216290
KAZSCISAT-1             
1 43787U 18099AF  22323.60800963  .00004476  00000+0  37294-3 0  9998
2 43787  97.6016  26.2100 0015356  98.9190 261.3772 14.99037768216334
EAGLET-I                
1 43790U 18099AJ  22323.61816972  .00001514  00000+0  13499-3 0  9991
2 43790  97.6071  27.4024 0014451 108.3633 251.9162 14.97367464216009
ESEO                    
1 43792U 18099AL  22323.62171166  .00000673  00000+0  64052-4 0  9990
2 43792  97.6010  26.3741 0014397 106.9416 253.3385 14.96565047216032
CSIM-FD                 
1 43793U 18099AM  22323.79148889  .00004285  00000+0  35010-3 0  9999
2 43793  97.6078  28.6551 0015022 104.7213 255.5676 14.99820968216157
ASTROCAST 0.1           
1 43798U 18099AS  22323.82474341  .00002842  00000+0  24002-3 0  9999
2 43798  97.6090  28.3542 0013025  84.5672 275.7037 14.98822450216374
JY1SAT (JO-97)          
1 43803U 18099AX  22323.62646884  .00002505  00000+0  21640-3 0  9998
2 43803  97.6030  26.6821 0015376 104.6590 255.6338 14.98021367216290
SUOMI-100               
1 43804U 18099AY  22323.45618620  .00003274  00000+0  28239-3 0  9992
2 43804  97.6020  26.4013 0016191 106.8365 253.4635 14.97863963216270
AL-FARABI 2             
1 43805U 18099AZ  22323.90758812  .00003307  00000+0  27918-3 0  9991
2 43805  97.6032  27.5291 0014967 105.2464 255.0393 14.98709561216370
CENTAURI-1              
1 43809U 18099BD  22323.59236113  .00002728  00000+0  23904-3 0  9992
2 43809  97.6036  26.7910 0016387 107.5635 252.7380 14.97390576215987
CHOMPTT                 
1 43855U 18104G   22323.37720934  .00012363  00000+0  41699-3 0  9992
2 43855  85.0307 307.6660 0015645  34.1420 326.0829 15.30454254218399
DAVINCI                 
1 43857U 18104J   22323.41137550  .00083524  00000+0  12891-2 0  9993
2 43857  85.0177 303.0916 0010986  66.5883 293.6530 15.53767250218762
UWE-4                   
1 43880U 18111E   22323.17812744  .00002752  00000+0  23061-3 0  9991
2 43880  97.6580 226.7641 0011107 151.5909 208.5922 14.99180135212877
ZACUBE-2                
1 43907U 18111AH  22323.68638250  .00009890  00000+0  33582-3 0  9994
2 43907  97.1657 204.5090 0016487 245.5947 176.9592 15.30555901217016
MICRODRAGON             
1 43935U 19003D   22323.10315245  .00007582  00000+0  27980-3 0  9990
2 43935  97.1247 346.3175 0015689 352.4755   7.6247 15.27923803213298
AOBA VELOX-IV           
1 43940U 19003J   22323.82312343  .00038388  00000+0  74424-3 0  9994
2 43940  97.1110 355.8456 0011557 305.7630  54.2546 15.47518132214066
M6P                     
1 44109U 19018AF  22323.23995037  .00025292  00000+0  50142-3 0  9991
2 44109  97.3882  49.5084 0039568 287.2047  72.4873 15.46154549203312
FORMOSAT 7-4            
1 44350U 19036M   22323.59903815  .00004725  00000+0  25762-3 0  9999
2 44350  24.0012  35.6876 0006049 134.9674 225.1321 15.10617242186948
PAINANI 1               
1 44365U 19037A   22323.07114768  .00144265  00000+0  93351-3 0  9993
2 44365  44.9899 202.6935 0010731 191.0650 169.0016 15.74844809191406
METEOR-M2 2             
1 44387U 19038A   22323.46685220  .00000046  00000+0  39420-4 0  9993
2 44387  98.7448 283.1538 0001500 141.6723 218.4567 14.23731164175466
VDNH-80                 
1 44392U 19038G   22323.89063448  .00010637  00000+0  49481-3 0  9992
2 44392  97.6539 295.4346 0016772 320.7130  68.8955 15.20017001186435
D-STAR ONE (LIGHTSAT)   
1 44393U 19038H   22323.36231382  .00010919  00000+0  50563-3 0  9995
2 44393  97.6541 294.8209 0016911 323.3434  36.6642 15.20164414186540
AMGU-1 (AMURSAT)        
1 44394U 19038J   22323.85871578  .00011722  00000+0  53472-3 0  9992
2 44394  97.6525 295.3316 0016646 321.8359  38.1696 15.20668623186628
DOT-1                   
1 44399U 19038P   22323.37465000  .00007027  00000+0  35676-3 0  9992
2 44399  97.6596 293.1502 0020951 329.7697  30.2325 15.17041131186414
SOKRAT                  
1 44404U 19038U   22323.87513975  .00011586  00000+0  53253-3 0  9995
2 44404  97.6529 294.9535 0017004 323.6888  36.3191 15.20405466186600
LUCKY-7                 
1 44406U 19038W   22322.86861587  .00007726  00000+0  38546-3 0  9999
2 44406  97.6579 293.0965 0020457 322.8843  37.0974 15.17623599186367
D-STAR ONE (EXOCONNECT) 
1 44410U 19038AA  22323.69094359  .00020016  00000+0  79782-3 0  9995
2 44410  97.6462 296.3431 0014436 319.3622  40.6537 15.25150582186702
